[
  {
    "COMMENT": "GENERATED VIA SPACETRACK.ORG API",
    "ORIGINATOR": "JSPOC",
    "NORAD_CAT_ID": "40076",
    "OBJECT_NAME": "TDS 1",
    "OBJECT_TYPE": "PAYLOAD",
    "CLASSIFICATION_TYPE": "U",
    "INTLDES": "14037H",
    "EPOCH": "2017-01-16 02:58:24",
    "EPOCH_MICROSECONDS": "612672",
    "MEAN_MOTION": "14.81290094",
    "ECCENTRICITY": "0.0005521",
    "INCLINATION": "98.3246",
    "RA_OF_ASC_NODE": "121.2981",
    "ARG_OF_PERICENTER": "189.1027",
    "MEAN_ANOMALY": "171.0089",
    "EPHEMERIS_TYPE": "0",
    "ELEMENT_SET_NO": "999",
    "REV_AT_EPOCH": "13651",
    "BSTAR": "1.4734e-05",
    "MEAN_MOTION_DOT": "5.8e-07",
    "MEAN_MOTION_DDOT": "0",
    "FILE": "2140689",
    "TLE_LINE0": "0 TDS 1",
    "TLE_LINE1": "1 40076U 14037H   17016.12389598  .00000058  00000-0  14734-4 0  9998",
    "TLE_LINE2": "2 40076  98.3246 121.2981 0005521 189.1027 171.0089 14.81290094136516",
    "OBJECT_ID": "2014-037H",
    "OBJECT_NUMBER": "40076",
    "SEMIMAJOR_AXIS": "7003.391",
    "PERIOD": "97.212",
    "APOGEE": "629.123",
    "PERIGEE": "621.390"
  },
  {
    "COMMENT": "GENERATED VIA SPACETRACK.ORG API",
    "ORIGINATOR": "JSPOC",
    "NORAD_CAT_ID": "40076",
    "OBJECT_NAME": "TDS 1",
    "OBJECT_TYPE": "PAYLOAD",
    "CLASSIFICATION_TYPE": "U",
    "INTLDES": "14037H",
    "EPOCH": "2017-01-16 11:04:45",
    "EPOCH_MICROSECONDS": "971616",
    "MEAN_MOTION": "14.81290193",
    "ECCENTRICITY": "0.0005515",
    "INCLINATION": "98.3247",
    "RA_OF_ASC_NODE": "121.6489",
    "ARG_OF_PERICENTER": "188.1094",
    "MEAN_ANOMALY": "172.003",
    "EPHEMERIS_TYPE": "0",
    "ELEMENT_SET_NO": "999",
    "REV_AT_EPOCH": "13656",
    "BSTAR": "1.4455e-05",
    "MEAN_MOTION_DOT": "5.5e-07",
    "MEAN_MOTION_DDOT": "0",
    "FILE": "2140800",
    "TLE_LINE0": "0 TDS 1",
    "TLE_LINE1": "1 40076U 14037H   17016.46164319  .00000055  00000-0  14455-4 0  9994",
    "TLE_LINE2": "2 40076  98.3247 121.6489 0005515 188.1094 172.0030 14.81290193136562",
    "OBJECT_ID": "2014-037H",
    "OBJECT_NUMBER": "40076",
    "SEMIMAJOR_AXIS": "7003.391",
    "PERIOD": "97.212",
    "APOGEE": "629.118",
    "PERIGEE": "621.394"
  },
  {
    "COMMENT": "GENERATED VIA SPACETRACK.ORG API",
    "ORIGINATOR": "JSPOC",
    "NORAD_CAT_ID": "40076",
    "OBJECT_NAME": "TDS 1",
    "OBJECT_TYPE": "PAYLOAD",
    "CLASSIFICATION_TYPE": "U",
    "INTLDES": "14037H",
    "EPOCH": "2017-01-16 17:33:51",
    "EPOCH_MICROSECONDS": "57216",
    "MEAN_MOTION": "14.81290367",
    "ECCENTRICITY": "0.0005527",
    "INCLINATION": "98.3247",
    "RA_OF_ASC_NODE": "121.9296",
    "ARG_OF_PERICENTER": "187.1636",
    "MEAN_ANOMALY": "172.9503",
    "EPHEMERIS_TYPE": "0",
    "ELEMENT_SET_NO": "999",
    "REV_AT_EPOCH": "13660",
    "BSTAR": "1.5441e-05",
    "MEAN_MOTION_DOT": "6.3e-07",
    "MEAN_MOTION_DDOT": "0",
    "FILE": "2140934",
    "TLE_LINE0": "0 TDS 1",
    "TLE_LINE1": "1 40076U 14037H   17016.73184094  .00000063  00000-0  15441-4 0  9991",
    "TLE_LINE2": "2 40076  98.3247 121.9296 0005527 187.1636 172.9503 14.81290367136607",
    "OBJECT_ID": "2014-037H",
    "OBJECT_NUMBER": "40076",
    "SEMIMAJOR_AXIS": "7003.391",
    "PERIOD": "97.212",
    "APOGEE": "629.126",
    "PERIGEE": "621.385"
  },
  {
    "COMMENT": "GENERATED VIA SPACETRACK.ORG API",
    "ORIGINATOR": "JSPOC",
    "NORAD_CAT_ID": "40076",
    "OBJECT_NAME": "TDS 1",
    "OBJECT_TYPE": "PAYLOAD",
    "CLASSIFICATION_TYPE": "U",
    "INTLDES": "14037H",
    "EPOCH": "2017-01-17 03:17:28",
    "EPOCH_MICROSECONDS": "705920",
    "MEAN_MOTION": "14.81290439",
    "ECCENTRICITY": "0.0005554",
    "INCLINATION": "98.3247",
    "RA_OF_ASC_NODE": "122.3506",
    "ARG_OF_PERICENTER": "185.8267",
    "MEAN_ANOMALY": "174.2888",
    "EPHEMERIS_TYPE": "0",
    "ELEMENT_SET_NO": "999",
    "REV_AT_EPOCH": "13666",
    "BSTAR": "1.5375e-05",
    "MEAN_MOTION_DOT": "6.3e-07",
    "MEAN_MOTION_DDOT": "0",
    "FILE": "2141074",
    "TLE_LINE0": "0 TDS 1",
    "TLE_LINE1": "1 40076U 14037H   17017.13713780  .00000063  00000-0  15375-4 0  9992",
    "TLE_LINE2": "2 40076  98.3247 122.3506 0005554 185.8267 174.2888 14.81290439136668",
    "OBJECT_ID": "2014-037H",
    "OBJECT_NUMBER": "40076",
    "SEMIMAJOR_AXIS": "7003.390",
    "PERIOD": "97.212",
    "APOGEE": "629.145",
    "PERIGEE": "621.366"
  },
  {
    "COMMENT": "GENERATED VIA SPACETRACK.ORG API",
    "ORIGINATOR": "JSPOC",
    "NORAD_CAT_ID": "40076",
    "OBJECT_NAME": "TDS 1",
    "OBJECT_TYPE": "PAYLOAD",
    "CLASSIFICATION_TYPE": "U",
    "INTLDES": "14037H",
    "EPOCH": "2017-01-17 11:23:50",
    "EPOCH_MICROSECONDS": "46720",
    "MEAN_MOTION": "14.81290501",
    "ECCENTRICITY": "0.0005594",
    "INCLINATION": "98.3246",
    "RA_OF_ASC_NODE": "122.701",
    "ARG_OF_PERICENTER": "185.143",
    "MEAN_ANOMALY": "174.9729",
    "EPHEMERIS_TYPE": "0",
    "ELEMENT_SET_NO": "999",
    "REV_AT_EPOCH": "13671",
    "BSTAR": "1.409e-05",
    "MEAN_MOTION_DOT": "5.3e-07",
    "MEAN_MOTION_DDOT": "0",
    "FILE": "2141218",
    "TLE_LINE0": "0 TDS 1",
    "TLE_LINE1": "1 40076U 14037H   17017.47488480  .00000053  00000-0  14090-4 0  9997",
    "TLE_LINE2": "2 40076  98.3246 122.7010 0005594 185.1430 174.9729 14.81290501136717",
    "OBJECT_ID": "2014-037H",
    "OBJECT_NUMBER": "40076",
    "SEMIMAJOR_AXIS": "7003.390",
    "PERIOD": "97.212",
    "APOGEE": "629.173",
    "PERIGEE": "621.337"
  },
  {
    "COMMENT": "GENERATED VIA SPACETRACK.ORG API",
    "ORIGINATOR": "JSPOC",
    "NORAD_CAT_ID": "40076",
    "OBJECT_NAME": "TDS 1",
    "OBJECT_TYPE": "PAYLOAD",
    "CLASSIFICATION_TYPE": "U",
    "INTLDES": "14037H",
    "EPOCH": "2017-01-17 17:52:55",
    "EPOCH_MICROSECONDS": "128864",
    "MEAN_MOTION": "14.81290579",
    "ECCENTRICITY": "0.0005583",
    "INCLINATION": "98.3247",
    "RA_OF_ASC_NODE": "122.9816",
    "ARG_OF_PERICENTER": "184.3413",
    "MEAN_ANOMALY": "175.775",
    "EPHEMERIS_TYPE": "0",
    "ELEMENT_SET_NO": "999",
    "REV_AT_EPOCH": "13675",
    "BSTAR": "1.4281e-05",
    "MEAN_MOTION_DOT": "5.4e-07",
    "MEAN_MOTION_DDOT": "0",
    "FILE": "2141375",
    "TLE_LINE0": "0 TDS 1",
    "TLE_LINE1": "1 40076U 14037H   17017.74508251  .00000054  00000-0  14281-4 0  9999",
    "TLE_LINE2": "2 40076  98.3247 122.9816 0005583 184.3413 175.7750 14.81290579136756",
    "OBJECT_ID": "2014-037H",
    "OBJECT_NUMBER": "40076",
    "SEMIMAJOR_AXIS": "7003.390",
    "PERIOD": "97.212",
    "APOGEE": "629.165",
    "PERIGEE": "621.345"
  },
  {
    "COMMENT": "GENERATED VIA SPACETRACK.ORG API",
    "ORIGINATOR": "JSPOC",
    "NORAD_CAT_ID": "40076",
    "OBJECT_NAME": "TDS 1",
    "OBJECT_TYPE": "PAYLOAD",
    "CLASSIFICATION_TYPE": "U",
    "INTLDES": "14037H",
    "EPOCH": "2017-01-18 03:36:32",
    "EPOCH_MICROSECONDS": "780160",
    "MEAN_MOTION": "14.81290515",
    "ECCENTRICITY": "0.0005637",
    "INCLINATION": "98.3246",
    "RA_OF_ASC_NODE": "123.4024",
    "ARG_OF_PERICENTER": "182.8306",
    "MEAN_ANOMALY": "177.2868",
    "EPHEMERIS_TYPE": "0",
    "ELEMENT_SET_NO": "999",
    "REV_AT_EPOCH": "13681",
    "BSTAR": "1.2919e-05",
    "MEAN_MOTION_DOT": "4.4e-07",
    "MEAN_MOTION_DDOT": "0",
    "FILE": "2141510",
    "TLE_LINE0": "0 TDS 1",
    "TLE_LINE1": "1 40076U 14037H   17018.15037940  .00000044  00000-0  12919-4 0  9992",
    "TLE_LINE2": "2 40076  98.3246 123.4024 0005637 182.8306 177.2868 14.81290515136810",
    "OBJECT_ID": "2014-037H",
    "OBJECT_NUMBER": "40076",
    "SEMIMAJOR_AXIS": "7003.390",
    "PERIOD": "97.212",
    "APOGEE": "629.203",
    "PERIGEE": "621.307"
  },
  {
    "COMMENT": "GENERATED VIA SPACETRACK.ORG API",
    "ORIGINATOR": "JSPOC",
    "NORAD_CAT_ID": "40076",
    "OBJECT_NAME": "TDS 1",
    "OBJECT_TYPE": "PAYLOAD",
    "CLASSIFICATION_TYPE": "U",
    "INTLDES": "14037H",
    "EPOCH": "2017-01-18 10:05:37",
    "EPOCH_MICROSECONDS": "870944",
    "MEAN_MOTION": "14.81290633",
    "ECCENTRICITY": "0.0005659",
    "INCLINATION": "98.3246",
    "RA_OF_ASC_NODE": "123.683",
    "ARG_OF_PERICENTER": "182.0489",
    "MEAN_ANOMALY": "178.0702",
    "EPHEMERIS_TYPE": "0",
    "ELEMENT_SET_NO": "999",
    "REV_AT_EPOCH": "13685",
    "BSTAR": "1.3467e-05",
    "MEAN_MOTION_DOT": "4.8e-07",
    "MEAN_MOTION_DDOT": "0",
    "FILE": "2141644",
    "TLE_LINE0": "0 TDS 1",
    "TLE_LINE1": "1 40076U 14037H   17018.42057721  .00000048  00000-0  13467-4 0  9994",
    "TLE_LINE2": "2 40076  98.3246 123.6830 0005659 182.0489 178.0702 14.81290633136856",
    "OBJECT_ID": "2014-037H",
    "OBJECT_NUMBER": "40076",
    "SEMIMAJOR_AXIS": "7003.390",
    "PERIOD": "97.212",
    "APOGEE": "629.218",
    "PERIGEE": "621.291"
  },
  {
    "COMMENT": "GENERATED VIA SPACETRACK.ORG API",
    "ORIGINATOR": "JSPOC",
    "NORAD_CAT_ID": "40076",
    "OBJECT_NAME": "TDS 1",
    "OBJECT_TYPE": "PAYLOAD",
    "CLASSIFICATION_TYPE": "U",
    "INTLDES": "14037H",
    "EPOCH": "2017-01-18 18:11:59",
    "EPOCH_MICROSECONDS": "237664",
    "MEAN_MOTION": "14.81290757",
    "ECCENTRICITY": "0.0005641",
    "INCLINATION": "98.3245",
    "RA_OF_ASC_NODE": "124.0335",
    "ARG_OF_PERICENTER": "181.0203",
    "MEAN_ANOMALY": "179.1001",
    "EPHEMERIS_TYPE": "0",
    "ELEMENT_SET_NO": "999",
    "REV_AT_EPOCH": "13690",
    "BSTAR": "1.4458e-05",
    "MEAN_MOTION_DOT": "5.6e-07",
    "MEAN_MOTION_DDOT": "0",
    "FILE": "2141794",
    "TLE_LINE0": "0 TDS 1",
    "TLE_LINE1": "1 40076U 14037H   17018.75832451  .00000056  00000-0  14458-4 0  9991",
    "TLE_LINE2": "2 40076  98.3245 124.0335 0005641 181.0203 179.1001 14.81290757136901",
    "OBJECT_ID": "2014-037H",
    "OBJECT_NUMBER": "40076",
    "SEMIMAJOR_AXIS": "7003.389",
    "PERIOD": "97.212",
    "APOGEE": "629.205",
    "PERIGEE": "621.304"
  }
]
